{
  "LFBD": {
    "raw": "LFBD 151030Z AUTO 21010KT 9999 FEW020 18/08 Q1007 NOSIG"
  },
  "LFMN": {
    "raw": "LFMN 151030Z 14005KT 9999 FEW020 20/12 Q1015 NOSIG"
  }
}
